[{"OBJECT_NAME":"STARLINK-34473","OBJECT_ID":"2025-126L","EPOCH":"2026-03-09T07:08:55.697568","MEAN_MOTION":14.98332341,"ECCENTRICITY":0.00028351,"INCLINATION":70.0032,"RA_OF_ASC_NODE":35.4295,"ARG_OF_PERICENTER":269.1154,"MEAN_ANOMALY":90.968,"EPHEMERIS_TYPE":0,"CLASSIFICATION_TYPE":"U","NORAD_CAT_ID":64354,"ELEMENT_SET_NO":999,"REV_AT_EPOCH":4062,"BSTAR":0.00016105214,"MEAN_MOTION_DOT":1.829e-5,"MEAN_MOTION_DDOT":0},{"OBJECT_NAME":"FREGAT DEB","OBJECT_ID":"2011-037NM","EPOCH":"2026-03-09T21:01:07.795488","MEAN_MOTION":13.39665912,"ECCENTRICITY":0.09103246,"INCLINATION":51.3884,"RA_OF_ASC_NODE":232.6021,"ARG_OF_PERICENTER":190.9383,"MEAN_ANOMALY":167.0453,"EPHEMERIS_TYPE":0,"CLASSIFICATION_TYPE":"U","NORAD_CAT_ID":47330,"ELEMENT_SET_NO":999,"REV_AT_EPOCH":22515,"BSTAR":0.024434627,"MEAN_MOTION_DOT":0.0019134,"MEAN_MOTION_DDOT":0}]
